COMMENT,ORIGINATOR,NORAD_CAT_ID,OBJECT_NAME,OBJECT_TYPE,CLASSIFICATION_TYPE,INTLDES,EPOCH,EPOCH_MICROSECONDS,MEAN_MOTION,ECCENTRICITY,INCLINATION,RA_OF_ASC_NODE,ARG_OF_PERICENTER,MEAN_ANOMALY,EPHEMERIS_TYPE,ELEMENT_SET_NO,REV_AT_EPOCH,BSTAR,MEAN_MOTION_DOT,MEAN_MOTION_DDOT,FILE,TLE_LINE0,TLE_LINE1,TLE_LINE2,OBJECT_ID,OBJECT_NUMBER,SEMIMAJOR_AXIS,PERIOD,APOGEE,PERIGEE,DECAYED
"GENERATED VIA SPACETRACK.ORG API","18 SPCS","55087","SPACEBEE-167","PAYLOAD","U","23001CG","2023-09-17 09:42:41","747040","15.22606699","0.0014101","97.4673","319.6918","47.4926","312.7499","0","999","3911","0.0010872","0.00025331","0","4008915","0 SPACEBEE-167","1 55087U 23001CG  23260.40464985  .00025331  00000-0  10872-2 0  9998","2 55087  97.4673 319.6918 0014101  47.4926 312.7499 15.22606699 39114","2023-001CG","55087","6876.118","94.575","507.679","488.287","0"
"GENERATED VIA SPACETRACK.ORG API","18 SPCS","55087","SPACEBEE-167","PAYLOAD","U","23001CG","2023-09-18 09:22:12","269856","15.22648587","0.0013964","97.4666","320.6713","44.1573","316.0776","0","999","3926","0.0011049","0.00025777","0","4009863","0 SPACEBEE-167","1 55087U 23001CG  23261.39041979  .00025777  00000-0  11049-2 0  9992","2 55087  97.4666 320.6713 0013964  44.1573 316.0776 15.22648587 39262","2023-001CG","55087","6875.992","94.572","507.459","488.256","0"
"GENERATED VIA SPACETRACK.ORG API","18 SPCS","55087","SPACEBEE-167","PAYLOAD","U","23001CG","2023-09-18 17:15:21","879936","15.22665076","0.0013972","97.4667","320.998","42.9869","317.2456","0","999","3931","0.0011133","0.00025987","0","4010111","0 SPACEBEE-167","1 55087U 23001CG  23261.71900324  .00025987  00000-0  11133-2 0  9993","2 55087  97.4667 320.9980 0013972  42.9869 317.2456 15.22665076 39311","2023-001CG","55087","6875.943","94.571","507.415","488.201","0"
"GENERATED VIA SPACETRACK.ORG API","18 SPCS","55087","SPACEBEE-167","PAYLOAD","U","23001CG","2023-09-18 17:15:21","879936","15.22665076","0.0013972","97.4667","320.998","42.9869","317.2456","0","999","3931","0.0011133","0.00025987","0","4010122","0 SPACEBEE-167","1 55087U 23001CG  23261.71900324  .00025987  00000-0  11133-2 0  9993","2 55087  97.4667 320.9980 0013972  42.9869 317.2456 15.22665076 39311","2023-001CG","55087","6875.943","94.571","507.415","488.201","0"
"GENERATED VIA SPACETRACK.ORG API","18 SPCS","55087","SPACEBEE-167","PAYLOAD","U","23001CG","2023-09-19 16:54:47","968704","15.22734111","0.0013883","97.4665","321.9774","39.8008","320.4244","0","999","3946","0.0011509","0.00026924","0","4011126","0 SPACEBEE-167","1 55087U 23001CG  23262.70472186  .00026924  00000-0  11509-2 0  9992","2 55087  97.4665 321.9774 0013883  39.8008 320.4244 15.22734111 39466","2023-001CG","55087","6875.735","94.567","507.145","488.054","0"
"GENERATED VIA SPACETRACK.ORG API","18 SPCS","55087","SPACEBEE-167","PAYLOAD","U","23001CG","2023-09-20 10:15:41","18112","15.22775385","0.0013854","97.4663","322.6954","37.3916","322.8282","0","999","3957","0.0011342","0.00026563","0","4011740","0 SPACEBEE-167","1 55087U 23001CG  23263.42755808  .00026563  00000-0  11342-2 0  9991","2 55087  97.4663 322.6954 0013854  37.3916 322.8282 15.22775385 39579","2023-001CG","55087","6875.611","94.564","507.001","487.950","0"
"GENERATED VIA SPACETRACK.ORG API","18 SPCS","55087","SPACEBEE-167","PAYLOAD","U","23001CG","2023-09-20 14:59:33","414720","15.22783665","0.00138","97.4663","322.8913","36.7564","323.4616","0","999","3960","0.0010076","0.00023586","0","4012054","0 SPACEBEE-167","1 55087U 23001CG  23263.62469230  .00023586  00000-0  10076-2 0  9999","2 55087  97.4663 322.8913 0013800  36.7564 323.4616 15.22783665 39601","2023-001CG","55087","6875.586","94.564","506.939","487.962","0"
"GENERATED VIA SPACETRACK.ORG API","18 SPCS","55087","SPACEBEE-167","PAYLOAD","U","23001CG","2023-09-21 03:36:32","628960","15.22807508","0.001378","97.4662","323.4138","34.7749","325.4385","0","999","3968","0.0010331","0.00024204","0","4012632","0 SPACEBEE-167","1 55087U 23001CG  23264.15037765  .00024204  00000-0  10331-2 0  9994","2 55087  97.4662 323.4138 0013780  34.7749 325.4385 15.22807508 39682","2023-001CG","55087","6875.514","94.562","506.853","487.905","0"
"GENERATED VIA SPACETRACK.ORG API","18 SPCS","55087","SPACEBEE-167","PAYLOAD","U","23001CG","2023-09-21 03:36:32","628960","15.22807508","0.001378","97.4662","323.4138","34.7749","325.4385","0","999","3968","0.0010331","0.00024204","0","4012680","0 SPACEBEE-167","1 55087U 23001CG  23264.15037765  .00024204  00000-0  10331-2 0  9994","2 55087  97.4662 323.4138 0013780  34.7749 325.4385 15.22807508 39682","2023-001CG","55087","6875.514","94.562","506.853","487.905","0"
"GENERATED VIA SPACETRACK.ORG API","18 SPCS","55087","SPACEBEE-167","PAYLOAD","U","23001CG","2023-09-21 16:13:31","183104","15.22827847","0.0013666","97.4662","323.936","32.9588","327.2498","0","999","3976","0.00089058","0.00020857","0","4012956","0 SPACEBEE-167","1 55087U 23001CG  23264.67605536  .00020857  00000-0  89058-3 0  9991","2 55087  97.4662 323.9360 0013666  32.9588 327.2498 15.22827847 39760","2023-001CG","55087","6875.453","94.561","506.714","487.922","0"
"GENERATED VIA SPACETRACK.ORG API","18 SPCS","55087","SPACEBEE-167","PAYLOAD","U","23001CG","2023-09-22 09:34:20","544096","15.22859627","0.0013587","97.4662","324.6542","30.2572","329.9446","0","999","3987","0.00093642","0.00021958","0","4013574","0 SPACEBEE-167","1 55087U 23001CG  23265.39884889  .00021958  00000-0  93642-3 0  9998","2 55087  97.4662 324.6542 0013587  30.2572 329.9446 15.22859627 39871","2023-001CG","55087","6875.357","94.559","506.564","487.881","0"
"GENERATED VIA SPACETRACK.ORG API","18 SPCS","55087","SPACEBEE-167","PAYLOAD","U","23001CG","2023-09-22 09:34:20","544096","15.22859627","0.0013587","97.4662","324.6542","30.2572","329.9446","0","999","3987","0.00093642","0.00021958","0","4013584","0 SPACEBEE-167","1 55087U 23001CG  23265.39884889  .00021958  00000-0  93642-3 0  9998","2 55087  97.4662 324.6542 0013587  30.2572 329.9446 15.22859627 39871","2023-001CG","55087","6875.357","94.559","506.564","487.881","0"
"GENERATED VIA SPACETRACK.ORG API","18 SPCS","55087","SPACEBEE-167","PAYLOAD","U","23001CG","2023-09-23 02:55:08","511456","15.22896739","0.001355","97.4664","325.3728","27.696","332.4996","0","999","3998","0.0010635","0.00024984","0","4014543","0 SPACEBEE-167","1 55087U 23001CG  23266.12162629  .00024984  00000-0  10635-2 0  9993","2 55087  97.4664 325.3728 0013550  27.6960 332.4996 15.22896739 39984","2023-001CG","55087","6875.245","94.557","506.426","487.794","0"
"GENERATED VIA SPACETRACK.ORG API","18 SPCS","55087","SPACEBEE-167","PAYLOAD","U","23001CG","2023-09-23 17:06:41","224896","15.22925086","0.0013459","97.4666","325.9603","25.9339","334.2569","0","999","4007","0.0010137","0.00023827","0","4014781","0 SPACEBEE-167","1 55087U 23001CG  23266.71297714  .00023827  00000-0  10137-2 0  9994","2 55087  97.4666 325.9603 0013459  25.9339 334.2569 15.22925086 40079","2023-001CG","55087","6875.160","94.555","506.278","487.772","0"
"GENERATED VIA SPACETRACK.ORG API","18 SPCS","55087","SPACEBEE-167","PAYLOAD","U","23001CG","2023-09-24 02:34:22","426464","15.22947212","0.0013473","97.4667","326.3523","24.3973","335.7898","0","999","4013","0.0011089","0.00026096","0","4015358","0 SPACEBEE-167","1 55087U 23001CG  23267.10720401  .00026096  00000-0  11089-2 0  9990","2 55087  97.4667 326.3523 0013473  24.3973 335.7898 15.22947212 40132","2023-001CG","55087","6875.093","94.554","506.221","487.696","0"
"GENERATED VIA SPACETRACK.ORG API","18 SPCS","55087","SPACEBEE-167","PAYLOAD","U","23001CG","2023-09-24 21:29:43","479168","15.22986102","0.0013379","97.4668","327.136","21.8024","338.3779","0","999","4025","0.0010368","0.00024416","0","4015673","0 SPACEBEE-167","1 55087U 23001CG  23267.89564212  .00024416  00000-0  10368-2 0  9995","2 55087  97.4668 327.1360 0013379  21.8024 338.3779 15.22986102 40256","2023-001CG","55087","6874.976","94.551","506.039","487.643","0"
"GENERATED VIA SPACETRACK.ORG API","18 SPCS","55087","SPACEBEE-167","PAYLOAD","U","23001CG","2023-09-25 02:13:33","451392","15.22998495","0.001338","97.4667","327.3319","21.0862","339.0923","0","999","4028","0.0011203","0.00026405","0","4015940","0 SPACEBEE-167","1 55087U 23001CG  23268.09274828  .00026405  00000-0  11203-2 0  9998","2 55087  97.4667 327.3319 0013380  21.0862 339.0923 15.22998495 40285","2023-001CG","55087","6874.939","94.550","506.003","487.605","0"
"GENERATED VIA SPACETRACK.ORG API","18 SPCS","55087","SPACEBEE-167","PAYLOAD","U","23001CG","2023-09-25 03:48:10","56672","15.23017126","0.0013411","97.4667","327.3973","20.7402","339.4376","0","999","4029","0.0019354","0.00045812","0","4016277","0 SPACEBEE-167","1 55087U 23001CG  23268.15844973  .00045812  00000-0  19354-2 0  9997","2 55087  97.4667 327.3973 0013411  20.7402 339.4376 15.23017126 40293","2023-001CG","55087","6874.883","94.549","505.968","487.528","0"
"GENERATED VIA SPACETRACK.ORG API","18 SPCS","55087","SPACEBEE-167","PAYLOAD","U","23001CG","2023-09-25 03:48:10","56672","15.23017126","0.0013411","97.4667","327.3973","20.7402","339.4376","0","999","4029","0.0019354","0.00045812","0","4016340","0 SPACEBEE-167","1 55087U 23001CG  23268.15844973  .00045812  00000-0  19354-2 0  9997","2 55087  97.4667 327.3973 0013411  20.7402 339.4376 15.23017126 40293","2023-001CG","55087","6874.883","94.549","505.968","487.528","0"
"GENERATED VIA SPACETRACK.ORG API","18 SPCS","55087","SPACEBEE-167","PAYLOAD","U","23001CG","2023-09-25 16:25:02","332128","15.23042522","0.0013291","97.4667","327.9196","18.9926","341.1803","0","999","4037","0.0013262","0.00031331","0","4016726","0 SPACEBEE-167","1 55087U 23001CG  23268.68405477  .00031331  00000-0  13262-2 0  9990","2 55087  97.4667 327.9196 0013291  18.9926 341.1803 15.23042522 40374","2023-001CG","55087","6874.807","94.548","505.809","487.534","0"
